H1 CPF 01  gfz 2022 07 21 00  7021 tandemx   
H2 1003001  6202 36605    2022 07 21 00 59 42 2022 07 26 00 00 42   120 1 1  0 0 0
H9
10 0 59781   3582.000000  0    -669179.612    950153.072   6778803.817
10 0 59781   3702.000000  0    -407658.237   1818448.867   6620781.554
10 0 59781   3822.000000  0    -124146.369   2650242.443   6346404.268
10 0 59781   3942.000000  0     175640.471   3430672.576   5960466.280
10 0 59781   4062.000000  0     485448.571   4145867.983   5469717.971
10 0 59781   4182.000000  0     798613.463   4783197.978   4882753.474
10 0 59781   4302.000000  0    1108200.217   5331502.270   4209865.883
10 0 59781   4422.000000  0    1407151.815   5781293.802   3462870.639
10 0 59781   4542.000000  0    1688445.413   6124933.278   2654903.661
10 0 59781   4662.000000  0    1945253.282   6356770.361   1800186.847
10 0 59781   4782.000000  0    2171099.599   6473243.380    913772.758
10 0 59781   4902.000000  0    2360013.839   6472936.926     11271.904
10 0 59781   5022.000000  0    2506674.172   6356596.271   -891429.720
10 0 59781   5142.000000  0    2606538.604   6127099.335  -1778458.304
10 0 59781   5262.000000  0    2655960.653   5789386.075  -2634238.767
10 0 59781   5382.000000  0    2652286.269   5350347.489  -3443774.534
10 0 59781   5502.000000  0    2593929.498   4818675.956  -4192914.142
10 0 59781   5622.000000  0    2480424.719   4204682.493  -4868597.612
10 0 59781   5742.000000  0    2312455.294   3520086.871  -5459078.977
10 0 59781   5862.000000  0    2091859.038   2777786.329  -5954122.352
10 0 59781   5982.000000  0    1821610.183   1991606.830  -6345169.469
10 0 59781   6102.000000  0    1505778.725   1176043.219  -6625475.360
10 0 59781   6222.000000  0    1149469.352    345993.776  -6790213.893
10 0 59781   6342.000000  0     758738.703   -483507.895  -6836552.810
10 0 59781   6462.000000  0     340493.051  -1297559.908  -6763696.077
10 0 59781   6582.000000  0     -97630.784  -2081652.258  -6572894.597
10 0 59781   6702.000000  0    -547400.558  -2821918.176  -6267428.427
10 0 59781   6822.000000  0   -1000139.431  -3505376.322  -5852557.296
10 0 59781   6942.000000  0   -1446888.416  -4120156.627  -5335438.670
10 0 59781   7062.000000  0   -1878579.282  -4655708.539  -4725016.428
10 0 59781   7182.000000  0   -2286215.645  -5102988.519  -4031877.749
10 0 59781   7302.000000  0   -2661058.492  -5454621.116  -3268079.088
10 0 59781   7422.000000  0   -2994811.669  -5705030.229  -2446944.034
10 0 59781   7542.000000  0   -3279803.831  -5850538.030  -1582835.598
10 0 59781   7662.000000  0   -3509162.722  -5889428.382   -690905.290
10 0 59781   7782.000000  0   -3676976.222  -5821971.197    213176.824
10 0 59781   7902.000000  0   -3778435.666  -5650406.666   1113504.267
10 0 59781   8022.000000  0   -3809958.150  -5378889.613   1994222.918
10 0 59781   8142.000000  0   -3769283.888  -5013394.206   2839819.618
10 0 59781   8262.000000  0   -3655546.332  -4561582.614   3635403.141
10 0 59781   8382.000000  0   -3469313.585  -4032641.341   4366972.646
10 0 59781   8502.000000  0   -3212599.950  -3437088.423   5021667.709
10 0 59781   8622.000000  0   -2888847.906  -2786557.301   5587994.118
10 0 59781   8742.000000  0   -2502881.017  -2093563.772   6056022.715
10 0 59781   8862.000000  0   -2060829.552  -1371261.235   6417559.228
10 0 59781   8982.000000  0   -1570029.697   -633187.162   6666283.949
10 0 59781   9102.000000  0   -1038897.713    106993.813   6797854.511
10 0 59781   9222.000000  0    -476785.292    835741.487   6809975.421
10 0 59781   9342.000000  0     106184.818   1539887.090   6702436.532
10 0 59781   9462.000000  0     699300.920   2206871.175   6477116.688
10 0 59781   9582.000000  0    1291458.844   2824967.586   6137952.231
10 0 59781   9702.000000  0    1871368.858   3383490.027   5690872.604
10 0 59781   9822.000000  0    2427770.469   3872980.121   5143703.105
10 0 59781   9942.000000  0    2949652.816   4285372.829   4506033.989
10 0 59781  10062.000000  0    3426474.593   4614134.153   3789056.241
10 0 59781  10182.000000  0    3848378.570   4854370.149   3005370.256
10 0 59781  10302.000000  0    4206401.384   5002906.975   2168765.221
10 0 59781  10422.000000  0    4492664.917   5058332.309   1293970.776
10 0 59781  10542.000000  0    4700549.204   5021003.833    396394.580
10 0 59781  10662.000000  0    4824843.457   4893022.066   -508158.761
10 0 59781  10782.000000  0    4861866.298   4678164.393  -1403775.247
10 0 59781  10902.000000  0    4809556.563   4381786.525  -2274718.713
10 0 59781  11022.000000  0    4667531.612   4010693.803  -3105713.982
10 0 59781  11142.000000  0    4437111.164   3572984.786  -3882219.253
10 0 59781  11262.000000  0    4121305.899   3077871.970  -4590681.354
10 0 59781  11382.000000  0    3724773.634   2535484.263  -5218768.989
10 0 59781  11502.000000  0    3253744.413   1956656.466  -5755581.030
10 0 59781  11622.000000  0    2715915.490   1352710.750  -6191826.514
10 0 59781  11742.000000  0    2120319.578    735234.971  -6519973.838
10 0 59781  11862.000000  0    1477170.417    115862.799  -6734368.430
10 0 59781  11982.000000  0     797688.767   -493941.100  -6831321.340
10 0 59781  12102.000000  0      93907.824  -1083089.222  -6809166.026
10 0 59781  12222.000000  0    -621535.099  -1641067.204  -6668282.002
10 0 59781  12342.000000  0   -1335619.295  -2158116.093  -6411089.848
10 0 59781  12462.000000  0   -2035172.370  -2625400.358  -6042014.638
10 0 59781  12582.000000  0   -2707107.679  -3035157.361  -5567417.406
10 0 59781  12702.000000  0   -3338665.648  -3380827.348  -4995497.425
10 0 59781  12822.000000  0   -3917656.747  -3657162.568  -4336162.402
10 0 59781  12942.000000  0   -4432699.162  -3860311.112  -3600867.002
10 0 59781  13062.000000  0   -4873447.229  -3987874.642  -2802422.906
10 0 59781  13182.000000  0   -5230805.738  -4038938.268  -1954781.063
10 0 59781  13302.000000  0   -5497124.089  -4014070.638  -1072789.567
10 0 59781  13422.000000  0   -5666365.481  -3915294.138   -171931.864
10 0 59781  13542.000000  0   -5734246.630  -3746025.456    731950.064
10 0 59781  13662.000000  0   -5698343.759  -3510987.825   1622942.826
10 0 59781  13782.000000  0   -5558159.983  -3216095.203   2485351.958
10 0 59781  13902.000000  0   -5315153.312  -2868312.431   3303986.724
10 0 59781  14022.000000  0   -4972725.521  -2475496.256   4064434.907
10 0 59781  14142.000000  0   -4536171.063  -2046219.215   4753321.945
10 0 59781  14262.000000  0   -4012588.085  -1589582.415   5358546.569
10 0 59781  14382.000000  0   -3410756.372  -1115023.040   5869491.043
10 0 59781  14502.000000  0   -2740983.569   -632119.058   6277205.016
10 0 59781  14622.000000  0   -2014921.155   -150394.747   6574557.712
10 0 59781  14742.000000  0   -1245355.842    320866.769   6756355.099
10 0 59781  14862.000000  0    -445982.294    772800.419   6819424.645
10 0 59781  14982.000000  0     368840.784   1197124.964   6762667.167
10 0 59781  15102.000000  0    1184347.802   1586294.420   6587074.923
10 0 59781  15222.000000  0    1985633.219   1933632.625   6295714.963
10 0 59781  15342.000000  0    2757923.122   2233447.805   5893678.736
10 0 59781  15462.000000  0    3486848.776   2481126.915   5387999.354
10 0 59781  15582.000000  0    4158717.446   2673207.817   4787534.200
10 0 59781  15702.000000  0    4760773.381   2807428.329   4102815.459
10 0 59781  15822.000000  0    5281447.560   2882751.131   3345871.373
10 0 59781  15942.000000  0    5710590.028   2899362.053   2530014.236
10 0 59781  16062.000000  0    6039673.492   2858642.455   1669605.284
10 0 59781  16182.000000  0    6261970.613   2763118.006    779798.026
10 0 59781  16302.000000  0    6372695.986   2616382.243   -123736.493
10 0 59781  16422.000000  0    6369108.382   2422997.123  -1025095.250
10 0 59781  16542.000000  0    6250570.588   2188373.408  -1908430.942
10 0 59781  16662.000000  0    6018570.192   1918636.742  -2758237.090
10 0 59781  16782.000000  0    5676696.572   1620479.232  -3559626.962
10 0 59781  16902.000000  0    5230576.081   1301001.465  -4298597.028
10 0 59781  17022.000000  0    4687766.808    967549.327  -4962270.534
10 0 59781  17142.000000  0    4057618.241    627551.110  -5539115.465
10 0 59781  17262.000000  0    3351100.548    288357.600  -6019136.192
10 0 59781  17382.000000  0    2580605.713    -42911.286  -6394036.540
10 0 59781  17502.000000  0    1759725.567   -359510.755  -6657351.210
10 0 59781  17622.000000  0     903012.650   -655203.630  -6804546.771
10 0 59781  17742.000000  0      25724.370   -924379.178  -6833092.255
10 0 59781  17862.000000  0    -856443.591  -1162155.709  -6742496.315
10 0 59781  17982.000000  0   -1727630.729  -1364466.583  -6534315.237
10 0 59781  18102.000000  0   -2572090.806  -1528128.466  -6212129.201
10 0 59781  18222.000000  0   -3374469.807  -1650890.464  -5781486.284
10 0 59781  18342.000000  0   -4120081.131  -1731464.526  -5249818.366
10 0 59781  18462.000000  0   -4795176.182  -1769536.073  -4626324.715
10 0 59781  18582.000000  0   -5387202.032  -1765753.959  -3921823.806
10 0 59781  18702.000000  0   -5885042.808  -1721700.296  -3148575.928
10 0 59781  18822.000000  0   -6279239.188  -1639840.184  -2320076.539
10 0 59781  18942.000000  0   -6562179.704  -1523451.679  -1450824.035
10 0 59781  19062.000000  0   -6728259.288  -1376537.833   -556065.624
10 0 59781  19182.000000  0   -6774000.364  -1203722.255    348474.446
10 0 59781  19302.000000  0   -6698132.176  -1010130.222   1246878.379
10 0 59781  19422.000000  0   -6501625.586   -801259.489   2123323.783
10 0 59781  19542.000000  0   -6187682.586   -582843.539   2962371.415
10 0 59781  19662.000000  0   -5761680.878   -360710.545   3749245.550
10 0 59781  19782.000000  0   -5231073.939   -140641.795   4470100.721
10 0 59781  19902.000000  0   -4605250.126     71765.816   5112267.671
10 0 59781  20022.000000  0   -3895356.909    271231.260   5664474.767
99
